O3B FM17                
1 44114U 19020C   26072.77146366 -.00000022  00000+0  00000+0 0  9996
2 44114   0.0382 342.2165 0002664   5.4523  12.3211  5.00115442126752
O3B FM18                
1 44115U 19020D   26073.51732291 -.00000020  00000+0  00000+0 0  9996
2 44115   0.0525   0.3193 0002728 354.0751   5.5990  5.00115259126914
SES-17                  
1 49332U 21095A   26073.55520206 -.00000273  00000+0  00000+0 0  9992
2 49332   0.0277  54.1200 0000963 312.3480 298.4624  1.00269886 16901
SES-22                  
1 52933U 22071A   26073.54098866  .00000104  00000+0  00000+0 0  9991
2 52933   0.0155 101.6960 0000990 253.7915 232.4099  1.00273593  6575
SES-20                  
1 53960U 22123A   26072.90628869 -.00000101  00000+0  00000+0 0  9999
2 53960   0.0192 104.9887 0001720 326.8603 322.8278  1.00270457 12575
SES-21                  
1 53961U 22123B   26072.23807931  .00000069  00000+0  00000+0 0  9997
2 53961   0.0279  68.0789 0001072 275.2273 142.2575  1.00270335  6250
O3B MPOWER F1           
1 54755U 22174A   26073.45567101 -.00000021  00000+0  00000+0 0  9991
2 54755   0.0635 350.4497 0005435  19.2147  99.1230  5.00114976 60626
O3B MPOWER F2           
1 54756U 22174B   26062.53384886 -.00000028  00000+0  00000+0 0  9993
2 54756   0.1272 326.2177 0046125  76.0907 318.0389  5.00690325 60150
SES-18                  
1 55970U 23038A   26073.54809536 -.00000102  00000+0  00000+0 0  9992
2 55970   0.0392 266.6689 0002009  52.5356 307.1622  1.00271959 11155
SES-19                  
1 55971U 23038B   26073.55363138  .00000087  00000+0  00000+0 0  9998
2 55971   0.0529 281.0654 0001582  75.9872 239.5157  1.00271279 11132
O3B MPOWER F4           
1 56367U 23059A   26048.24074746 -.00000015  00000+0  00000+0 0  9995
2 56367   0.0593   7.9241 0006460 334.3658  17.6828  5.00119607 52601
O3B MPOWER F5           
1 58346U 23175A   26073.56026452 -.00000020  00000+0  00000+0 0  9993
2 58346   0.0408   4.8213 0004166 354.7558   0.4191  5.00115759 44693
ASTRA 1P (SES-24)       
1 60086U 24115A   26071.38933580  .00000120  00000+0  00000+0 0  9999
2 60086   0.0525 348.7446 0004591 336.6618   3.9688  1.00269354  6226
O3B MPOWER F7           
1 62362U 24244A   26073.52727119 -.00000020  00000+0  00000+0 0  9998
2 62362   0.0707   3.5776 0006109 348.5240   7.8852  5.00115180 21795
O3B MPOWER F8           
1 62363U 24244B   26073.49424526 -.00000021  00000+0  00000+0 0  9992
2 62363   0.0489 316.0743 0006553  29.3351  14.5682  5.00115683 16124
