[{"OBJECT_NAME":"O3B FM17","OBJECT_ID":"2019-020C","EPOCH":"2026-03-13T18:30:54.460224","MEAN_MOTION":5.00115442,"ECCENTRICITY":0.00026646,"INCLINATION":0.0382,"RA_OF_ASC_NODE":342.2165,"ARG_OF_PERICENTER":5.4523,"MEAN_ANOMALY":12.3211,"EPHEMERIS_TYPE":0,"CLASSIFICATION_TYPE":"U","NORAD_CAT_ID":44114,"ELEMENT_SET_NO":999,"REV_AT_EPOCH":12675,"BSTAR":0,"MEAN_MOTION_DOT":-2.2e-7,"MEAN_MOTION_DDOT":0},{"OBJECT_NAME":"O3B FM18","OBJECT_ID":"2019-020D","EPOCH":"2026-03-14T12:24:56.699424","MEAN_MOTION":5.00115259,"ECCENTRICITY":0.00027287,"INCLINATION":0.0525,"RA_OF_ASC_NODE":0.3193,"ARG_OF_PERICENTER":354.0751,"MEAN_ANOMALY":5.599,"EPHEMERIS_TYPE":0,"CLASSIFICATION_TYPE":"U","NORAD_CAT_ID":44115,"ELEMENT_SET_NO":999,"REV_AT_EPOCH":12691,"BSTAR":0,"MEAN_MOTION_DOT":-2.0e-7,"MEAN_MOTION_DDOT":0},{"OBJECT_NAME":"SES-17","OBJECT_ID":"2021-095A","EPOCH":"2026-03-14T13:19:29.457984","MEAN_MOTION":1.00269886,"ECCENTRICITY":9.632e-5,"INCLINATION":0.0277,"RA_OF_ASC_NODE":54.12,"ARG_OF_PERICENTER":312.348,"MEAN_ANOMALY":298.4624,"EPHEMERIS_TYPE":0,"CLASSIFICATION_TYPE":"U","NORAD_CAT_ID":49332,"ELEMENT_SET_NO":999,"REV_AT_EPOCH":1690,"BSTAR":0,"MEAN_MOTION_DOT":-2.73e-6,"MEAN_MOTION_DDOT":0},{"OBJECT_NAME":"SES-22","OBJECT_ID":"2022-071A","EPOCH":"2026-03-14T12:59:01.420224","MEAN_MOTION":1.00273593,"ECCENTRICITY":9.907e-5,"INCLINATION":0.0155,"RA_OF_ASC_NODE":101.696,"ARG_OF_PERICENTER":253.7915,"MEAN_ANOMALY":232.4099,"EPHEMERIS_TYPE":0,"CLASSIFICATION_TYPE":"U","NORAD_CAT_ID":52933,"ELEMENT_SET_NO":999,"REV_AT_EPOCH":657,"BSTAR":0,"MEAN_MOTION_DOT":1.04e-6,"MEAN_MOTION_DDOT":0},{"OBJECT_NAME":"SES-20","OBJECT_ID":"2022-123A","EPOCH":"2026-03-13T21:45:03.342816","MEAN_MOTION":1.00270457,"ECCENTRICITY":0.00017204,"INCLINATION":0.0192,"RA_OF_ASC_NODE":104.9887,"ARG_OF_PERICENTER":326.8603,"MEAN_ANOMALY":322.8278,"EPHEMERIS_TYPE":0,"CLASSIFICATION_TYPE":"U","NORAD_CAT_ID":53960,"ELEMENT_SET_NO":999,"REV_AT_EPOCH":1257,"BSTAR":0,"MEAN_MOTION_DOT":-1.01e-6,"MEAN_MOTION_DDOT":0},{"OBJECT_NAME":"SES-21","OBJECT_ID":"2022-123B","EPOCH":"2026-03-13T05:42:50.052384","MEAN_MOTION":1.00270335,"ECCENTRICITY":0.00010721,"INCLINATION":0.0279,"RA_OF_ASC_NODE":68.0789,"ARG_OF_PERICENTER":275.2273,"MEAN_ANOMALY":142.2575,"EPHEMERIS_TYPE":0,"CLASSIFICATION_TYPE":"U","NORAD_CAT_ID":53961,"ELEMENT_SET_NO":999,"REV_AT_EPOCH":625,"BSTAR":0,"MEAN_MOTION_DOT":6.9e-7,"MEAN_MOTION_DDOT":0},{"OBJECT_NAME":"O3B MPOWER F1","OBJECT_ID":"2022-174A","EPOCH":"2026-03-14T10:56:09.975264","MEAN_MOTION":5.00114976,"ECCENTRICITY":0.00054352,"INCLINATION":0.0635,"RA_OF_ASC_NODE":350.4497,"ARG_OF_PERICENTER":19.2147,"MEAN_ANOMALY":99.123,"EPHEMERIS_TYPE":0,"CLASSIFICATION_TYPE":"U","NORAD_CAT_ID":54755,"ELEMENT_SET_NO":999,"REV_AT_EPOCH":6062,"BSTAR":0,"MEAN_MOTION_DOT":-2.1e-7,"MEAN_MOTION_DDOT":0},{"OBJECT_NAME":"O3B MPOWER F2","OBJECT_ID":"2022-174B","EPOCH":"2026-03-03T12:48:44.541504","MEAN_MOTION":5.00690325,"ECCENTRICITY":0.00461256,"INCLINATION":0.1272,"RA_OF_ASC_NODE":326.2177,"ARG_OF_PERICENTER":76.0907,"MEAN_ANOMALY":318.0389,"EPHEMERIS_TYPE":0,"CLASSIFICATION_TYPE":"U","NORAD_CAT_ID":54756,"ELEMENT_SET_NO":999,"REV_AT_EPOCH":6015,"BSTAR":0,"MEAN_MOTION_DOT":-2.8e-7,"MEAN_MOTION_DDOT":0},{"OBJECT_NAME":"SES-18","OBJECT_ID":"2023-038A","EPOCH":"2026-03-14T13:09:15.439104","MEAN_MOTION":1.00271959,"ECCENTRICITY":0.00020094,"INCLINATION":0.0392,"RA_OF_ASC_NODE":266.6689,"ARG_OF_PERICENTER":52.5356,"MEAN_ANOMALY":307.1622,"EPHEMERIS_TYPE":0,"CLASSIFICATION_TYPE":"U","NORAD_CAT_ID":55970,"ELEMENT_SET_NO":999,"REV_AT_EPOCH":1115,"BSTAR":0,"MEAN_MOTION_DOT":-1.02e-6,"MEAN_MOTION_DDOT":0},{"OBJECT_NAME":"SES-19","OBJECT_ID":"2023-038B","EPOCH":"2026-03-14T13:17:13.751232","MEAN_MOTION":1.00271279,"ECCENTRICITY":0.00015824,"INCLINATION":0.0529,"RA_OF_ASC_NODE":281.0654,"ARG_OF_PERICENTER":75.9872,"MEAN_ANOMALY":239.5157,"EPHEMERIS_TYPE":0,"CLASSIFICATION_TYPE":"U","NORAD_CAT_ID":55971,"ELEMENT_SET_NO":999,"REV_AT_EPOCH":1113,"BSTAR":0,"MEAN_MOTION_DOT":8.7e-7,"MEAN_MOTION_DDOT":0},{"OBJECT_NAME":"O3B MPOWER F4","OBJECT_ID":"2023-059A","EPOCH":"2026-02-17T05:46:40.580544","MEAN_MOTION":5.00119607,"ECCENTRICITY":0.00064606,"INCLINATION":0.0593,"RA_OF_ASC_NODE":7.9241,"ARG_OF_PERICENTER":334.3658,"MEAN_ANOMALY":17.6828,"EPHEMERIS_TYPE":0,"CLASSIFICATION_TYPE":"U","NORAD_CAT_ID":56367,"ELEMENT_SET_NO":999,"REV_AT_EPOCH":5260,"BSTAR":0,"MEAN_MOTION_DOT":-1.5e-7,"MEAN_MOTION_DDOT":0},{"OBJECT_NAME":"O3B MPOWER F5","OBJECT_ID":"2023-175A","EPOCH":"2026-03-14T13:26:46.854528","MEAN_MOTION":5.00115759,"ECCENTRICITY":0.00041666,"INCLINATION":0.0408,"RA_OF_ASC_NODE":4.8213,"ARG_OF_PERICENTER":354.7558,"MEAN_ANOMALY":0.4191,"EPHEMERIS_TYPE":0,"CLASSIFICATION_TYPE":"U","NORAD_CAT_ID":58346,"ELEMENT_SET_NO":999,"REV_AT_EPOCH":4469,"BSTAR":0,"MEAN_MOTION_DOT":-2.0e-7,"MEAN_MOTION_DDOT":0},{"OBJECT_NAME":"ASTRA 1P (SES-24)","OBJECT_ID":"2024-115A","EPOCH":"2026-03-12T09:20:38.613120","MEAN_MOTION":1.00269354,"ECCENTRICITY":0.0004591,"INCLINATION":0.0525,"RA_OF_ASC_NODE":348.7446,"ARG_OF_PERICENTER":336.6618,"MEAN_ANOMALY":3.9688,"EPHEMERIS_TYPE":0,"CLASSIFICATION_TYPE":"U","NORAD_CAT_ID":60086,"ELEMENT_SET_NO":999,"REV_AT_EPOCH":622,"BSTAR":0,"MEAN_MOTION_DOT":1.2e-6,"MEAN_MOTION_DDOT":0},{"OBJECT_NAME":"O3B MPOWER F7","OBJECT_ID":"2024-244A","EPOCH":"2026-03-14T12:39:16.230816","MEAN_MOTION":5.0011518,"ECCENTRICITY":0.00061091,"INCLINATION":0.0707,"RA_OF_ASC_NODE":3.5776,"ARG_OF_PERICENTER":348.524,"MEAN_ANOMALY":7.8852,"EPHEMERIS_TYPE":0,"CLASSIFICATION_TYPE":"U","NORAD_CAT_ID":62362,"ELEMENT_SET_NO":999,"REV_AT_EPOCH":2179,"BSTAR":0,"MEAN_MOTION_DOT":-2.0e-7,"MEAN_MOTION_DDOT":0},{"OBJECT_NAME":"O3B MPOWER F8","OBJECT_ID":"2024-244B","EPOCH":"2026-03-14T11:51:42.790464","MEAN_MOTION":5.00115683,"ECCENTRICITY":0.00065534,"INCLINATION":0.0489,"RA_OF_ASC_NODE":316.0743,"ARG_OF_PERICENTER":29.3351,"MEAN_ANOMALY":14.5682,"EPHEMERIS_TYPE":0,"CLASSIFICATION_TYPE":"U","NORAD_CAT_ID":62363,"ELEMENT_SET_NO":999,"REV_AT_EPOCH":1612,"BSTAR":0,"MEAN_MOTION_DOT":-2.1e-7,"MEAN_MOTION_DDOT":0}]
